OBJECT_NAME,OBJECT_ID,EPOCH,MEAN_MOTION,ECCENTRICITY,INCLINATION,RA_OF_ASC_NODE,ARG_OF_PERICENTER,MEAN_ANOMALY,EPHEMERIS_TYPE,CLASSIFICATION_TYPE,NORAD_CAT_ID,ELEMENT_SET_NO,REV_AT_EPOCH,BSTAR,MEAN_MOTION_DOT,MEAN_MOTION_DDOT,sigma_x,sigma_y,sigma_z
STARLINK-11683 [DTC],2025-119G,2025-08-01T01:16:54.257664,15.78039584,0.0004643,42.9978,100.006,263.0453,96.9889,0,U,64239,999,1052,0.0018581,0.00338911,0.0,0.5,0.5,0.5
STARLINK-11684 [DTC],2025-119H,2025-07-31T23:38:44.097504,15.78031817,0.0001039,42.9971,100.3459,218.0363,142.0434,0,U,64240,999,1051,0.001738,0.00315914,0.0,0.5,0.5,0.5
STARLINK-11689 [DTC],2025-119J,2025-08-01T01:31:50.267136,15.76675893,0.0007853,42.997,100.0862,246.3859,113.6187,0,U,64241,999,1052,0.0015362,0.00261456,0.0,0.5,0.5,0.5
STARLINK-11690 [DTC],2025-119K,2025-08-01T01:02:51.465408,15.77894861,0.0002689,42.9987,99.9222,270.8009,89.2553,0,U,64242,999,1052,0.0017035,0.00307433,0.0,0.5,0.5,0.5
STARLINK-11694 [DTC],2025-119L,2025-08-01T02:19:56.570592,15.77964621,0.0001637,42.9973,99.4582,278.5635,81.5049,0,U,64243,999,1054,0.0010152,0.00180842,0.0,0.5,0.5,0.5
STARLINK-11710 [DTC],2025-119M,2025-08-01T02:12:55.106208,15.7790261,0.0005402,42.9959,99.4226,250.9532,109.0753,0,U,64244,999,1053,0.0011566,0.00206275,0.0,0.5,0.5,0.5
STARLINK-11704 [DTC],2025-119N,2025-07-31T22:00:01.999584,15.77865219,0.0001877,42.9974,100.4231,272.5847,196.4097,0,U,64245,999,1050,-4.602e-05,-8.503e-05,0.0,0.5,0.5,0.5
STARLINK-34203,2025-119P,2025-08-01T01:47:02.005728,15.40737262,0.0001329,42.998,113.4417,333.2805,26.7983,0,U,64246,999,1038,0.0011705,0.00048966,0.0,0.5,0.5,0.5
STARLINK-33865,2025-119Q,2025-08-01T02:35:11.990688,15.40736862,0.0004134,42.9983,112.833,254.3832,105.6569,0,U,64247,999,1040,0.0018136,0.00076325,0.0,0.5,0.5,0.5
STARLINK-34234,2025-119R,2025-08-01T06:00:02.000160,15.28393807,0.0001365,42.9993,112.0488,273.1271,139.1477,0,U,64248,999,1041,0.0017936,0.00050683,0.0,0.5,0.5,0.5
STARLINK-34256,2025-119S,2025-07-29T11:58:30.191520,15.40714006,7.13e-05,42.9983,127.6475,305.0368,55.0422,0,U,64249,999,1003,0.0014674,0.00061517,0.0,0.5,0.5,0.5
STARLINK-34229,2025-119T,2025-07-30T02:43:50.579040,15.40726082,0.0001336,42.9983,124.5271,278.7047,81.3658,0,U,64250,999,1012,0.0013766,0.00057686,0.0,0.5,0.5,0.5
STARLINK-34224,2025-119U,2025-07-31T02:17:02.325984,15.40760236,0.0001545,42.9996,118.9931,275.6064,84.4616,0,U,64251,999,1023,0.0012125,0.00050785,0.0,0.5,0.5,0.5
STARLINK-34215,2025-119V,2025-08-01T06:00:02.000160,15.34931139,0.0001423,42.9999,112.167,271.4937,93.128,0,U,64252,999,1041,-0.057404,-0.01789576,0.0,0.5,0.5,0.5
STARLINK-33893,2025-119W,2025-07-31T22:00:01.999584,15.28410869,0.0001203,42.9999,114.0645,295.8052,26.7152,0,U,64253,999,586,-0.00017665,-5.247e-05,0.0,0.5,0.5,0.5
STARLINK-34183,2025-119X,2025-07-31T22:00:01.999584,15.27559267,0.0001274,42.9992,114.1922,260.5707,8.74,0,U,64254,999,592,0.0004463,0.00012031,0.0,0.5,0.5,0.5
STARLINK-34211,2025-119Y,2025-07-31T22:00:01.999584,15.27576872,0.0001235,42.999,114.2409,285.832,322.348,0,U,64255,999,589,-0.00025823,-7.36e-05,0.0,0.5,0.5,0.5
STARLINK-34329,2025-120A,2025-07-31T21:41:01.021920,15.39619704,0.0001086,53.1603,65.0095,80.1818,279.931,0,U,64256,999,1008,0.00054994,0.0002166,0.0,0.5,0.5,0.5
STARLINK-34352,2025-120B,2025-07-31T20:54:12.569184,15.39617394,8.59e-05,53.1602,64.8032,86.6663,273.444,0,U,64257,999,1007,0.001086,0.00043282,0.0,0.5,0.5,0.5
STARLINK-34308,2025-120C,2025-07-31T21:14:16.288800,15.39623763,0.0001023,53.1595,64.8924,81.6069,278.5052,0,U,64258,999,1002,0.0014602,0.00058463,0.0,0.5,0.5,0.5
STARLINK-34306,2025-120D,2025-07-31T20:27:27.483552,15.39624402,0.0001784,53.1608,64.686,152.358,207.752,0,U,64259,999,1001,0.0010088,0.00040171,0.0,0.5,0.5,0.5
STARLINK-34281,2025-120E,2025-07-31T23:47:47.833440,15.39654805,0.0001279,53.1607,64.1333,74.4502,285.6644,0,U,64260,999,1009,0.0009588,0.00038188,0.0,0.5,0.5,0.5
STARLINK-34297,2025-120F,2025-07-31T21:27:38.554272,15.39616404,0.000115,53.1595,64.9488,73.5843,286.5288,0,U,64261,999,997,0.00040932,0.00016005,0.0,0.5,0.5,0.5
STARLINK-34325,2025-120G,2025-07-31T21:54:15.494112,15.39601396,0.0002114,53.1607,64.3505,52.016,308.1035,0,U,64262,999,1008,0.00096261,0.00038275,0.0,0.5,0.5,0.5
STARLINK-34276,2025-120H,2025-07-31T21:07:35.022144,15.39614916,0.0001091,53.1593,64.8623,73.751,286.3615,0,U,64263,999,1007,0.00092428,0.00036743,0.0,0.5,0.5,0.5
STARLINK-34333,2025-120J,2025-07-31T19:47:28.713696,15.39613317,0.0001017,53.1593,65.2272,57.0526,303.0576,0,U,64264,999,1001,0.0014519,0.00058106,0.0,0.5,0.5,0.5
STARLINK-34240,2025-120K,2025-07-31T21:00:53.593920,15.39615613,0.0001328,53.1605,64.8311,71.5432,288.5717,0,U,64265,999,1007,0.00092613,0.00036818,0.0,0.5,0.5,0.5
STARLINK-34315,2025-120L,2025-07-31T20:47:31.305984,15.39609846,0.0001242,53.1607,64.7719,83.4729,276.6418,0,U,64266,999,1001,0.0010889,0.00043389,0.0,0.5,0.5,0.5
STARLINK-34321,2025-120M,2025-07-31T23:41:06.273888,15.39616627,0.0001291,53.1607,64.1016,82.966,277.1492,0,U,64267,999,1009,0.00070812,0.00028026,0.0,0.5,0.5,0.5
