STARLINK-11683 [DTC]    
1 64239U 25119G   25213.05340576  .00338911  00000+0  18581-2 0  9994
2 64239  42.9978 100.0060 0004643 263.0453  96.9889 15.78039584 10529
STARLINK-11684 [DTC]    
1 64240U 25119H   25212.98523261  .00315914  00000+0  17380-2 0  9995
2 64240  42.9971 100.3459 0001039 218.0363 142.0434 15.78031817 10514
STARLINK-11689 [DTC]    
1 64241U 25119J   25213.06377624  .00261456  00000+0  15362-2 0  9995
2 64241  42.9970 100.0862 0007853 246.3859 113.6187 15.76675893 10529
STARLINK-11690 [DTC]    
1 64242U 25119K   25213.04365122  .00307433  00000+0  17035-2 0  9999
2 64242  42.9987  99.9222 0002689 270.8009  89.2553 15.77894861 10529
STARLINK-11694 [DTC]    
1 64243U 25119L   25213.09718253  .00180842  00000+0  10152-2 0  9998
2 64243  42.9973  99.4582 0001637 278.5635  81.5049 15.77964621 10540
STARLINK-11710 [DTC]    
1 64244U 25119M   25213.09230447  .00206275  00000+0  11566-2 0  9992
2 64244  42.9959  99.4226 0005402 250.9532 109.0753 15.77902610 10531
STARLINK-11704 [DTC]    
1 64245U 25119N   25212.91668981 -.00008503  00000+0 -46020-4 0  9992
2 64245  42.9974 100.4231 0001877 272.5847 196.4097 15.77865219 10500
STARLINK-34203          
1 64246U 25119P   25213.07432877  .00048966  00000+0  11705-2 0  9999
2 64246  42.9980 113.4417 0001329 333.2805  26.7983 15.40737262 10380
STARLINK-33865          
1 64247U 25119Q   25213.10777767  .00076325  00000+0  18136-2 0  9999
2 64247  42.9983 112.8330 0004134 254.3832 105.6569 15.40736862 10406
STARLINK-34234          
1 64248U 25119R   25213.25002315  .00050683  00000+0  17936-2 0  9992
2 64248  42.9993 112.0488 0001365 273.1271 139.1477 15.28393807 10418
STARLINK-34256          
1 64249U 25119S   25210.49896055  .00061517  00000+0  14674-2 0  9992
2 64249  42.9983 127.6475 0000713 305.0368  55.0422 15.40714006 10030
STARLINK-34229          
1 64250U 25119T   25211.11377985  .00057686  00000+0  13766-2 0  9993
2 64250  42.9983 124.5271 0001336 278.7047  81.3658 15.40726082 10124
STARLINK-34224          
1 64251U 25119U   25212.09516581  .00050785  00000+0  12125-2 0  9990
2 64251  42.9996 118.9931 0001545 275.6064  84.4616 15.40760236 10235
STARLINK-34215          
1 64252U 25119V   25213.25002315 -.01789576  00000+0 -57404-1 0  9993
2 64252  42.9999 112.1670 0001423 271.4937  93.1280 15.34931139 10412
STARLINK-33893          
1 64253U 25119W   25212.91668981 -.00005247  00000+0 -17665-3 0  9995
2 64253  42.9999 114.0645 0001203 295.8052  26.7152 15.28410869  5868
STARLINK-34183          
1 64254U 25119X   25212.91668981  .00012031  00000+0  44630-3 0  9995
2 64254  42.9992 114.1922 0001274 260.5707   8.7400 15.27559267  5923
STARLINK-34211          
1 64255U 25119Y   25212.91668981 -.00007360  00000+0 -25823-3 0  9990
2 64255  42.9990 114.2409 0001235 285.8320 322.3480 15.27576872  5891
STARLINK-34329          
1 64256U 25120A   25212.90348405  .00021660  00000+0  54994-3 0  9996
2 64256  53.1603  65.0095 0001086  80.1818 279.9310 15.39619704 10084
STARLINK-34352          
1 64257U 25120B   25212.87097881  .00043282  00000+0  10860-2 0  9999
2 64257  53.1602  64.8032 0000859  86.6663 273.4440 15.39617394 10073
STARLINK-34308          
1 64258U 25120C   25212.88491075  .00058463  00000+0  14602-2 0  9999
2 64258  53.1595  64.8924 0001023  81.6069 278.5052 15.39623763 10021
STARLINK-34306          
1 64259U 25120D   25212.85240143  .00040171  00000+0  10088-2 0  9996
2 64259  53.1608  64.6860 0001784 152.3580 207.7520 15.39624402 10016
STARLINK-34281          
1 64260U 25120E   25212.99152585  .00038188  00000+0  95880-3 0  9994
2 64260  53.1607  64.1333 0001279  74.4502 285.6644 15.39654805 10094
STARLINK-34297          
1 64261U 25120F   25212.89419623  .00016005  00000+0  40932-3 0  9995
2 64261  53.1595  64.9488 0001150  73.5843 286.5288 15.39616404  9978
STARLINK-34325          
1 64262U 25120G   25212.91267933  .00038275  00000+0  96261-3 0  9993
2 64262  53.1607  64.3505 0002114  52.0160 308.1035 15.39601396 10081
STARLINK-34276          
1 64263U 25120H   25212.88026646  .00036743  00000+0  92428-3 0  9993
2 64263  53.1593  64.8623 0001091  73.7510 286.3615 15.39614916 10076
STARLINK-34333          
1 64264U 25120J   25212.82463789  .00058106  00000+0  14519-2 0  9992
2 64264  53.1593  65.2272 0001017  57.0526 303.0576 15.39613317 10013
STARLINK-34240          
1 64265U 25120K   25212.87562030  .00036818  00000+0  92613-3 0  9995
2 64265  53.1605  64.8311 0001328  71.5432 288.5717 15.39615613 10070
STARLINK-34315          
1 64266U 25120L   25212.86633456  .00043389  00000+0  10889-2 0  9991
2 64266  53.1607  64.7719 0001242  83.4729 276.6418 15.39609846 10011
STARLINK-34321          
1 64267U 25120M   25212.98687817  .00028026  00000+0  70812-3 0  9999
2 64267  53.1607  64.1016 0001291  82.9660 277.1492 15.39616627 10099
